GLOBALSTAR M035         
1 25851U 99037A   24155.92970109 -.00000078  00000+0 -55864-3 0  9990
2 25851  51.9910 178.5082 0013056  89.7176 343.1129 11.04530973 54467
GLOBALSTAR M032         
1 25852U 99037B   24155.95668578 -.00000028  00000+0  12534-2 0  9998
2 25852  51.9980  29.7426 0009293 249.7824 110.1977 11.19053972 92448
GLOBALSTAR M051         
1 25853U 99037C   24155.91137796 -.00000031  00000+0  10007-2 0  9995
2 25853  51.9784 233.4303 0001485 241.0293 119.0369 11.42198358 89183
GLOBALSTAR M030         
1 25854U 99037D   24155.49339543 -.00000108  00000+0 -71053-3 0  9998
2 25854  51.9892  64.6220 0004228  85.2435 274.8864 11.55095130106289
GLOBALSTAR M048         
1 25872U 99041A   24155.92163817 -.00000046  00000+0  63839-3 0  9993
2 25872  51.9330 153.8113 0013744 251.0896 175.8465 11.33846801 82077
GLOBALSTAR M026         
1 25873U 99041B   24155.86363868 -.00000115  00000+0 -18734-2 0  9996
2 25873  52.0029 300.5968 0001015   2.6000 168.5939 11.06834558106594
GLOBALSTAR M043         
1 25874U 99041C   24155.53461810 -.00000110  00000+0 -12350-2 0  9990
2 25874  51.9398 247.2841 0012054  27.5391 345.5137 11.25679944 80239
